COMMENT,ORIGINATOR,NORAD_CAT_ID,OBJECT_NAME,OBJECT_TYPE,CLASSIFICATION_TYPE,INTLDES,EPOCH,EPOCH_MICROSECONDS,MEAN_MOTION,ECCENTRICITY,INCLINATION,RA_OF_ASC_NODE,ARG_OF_PERICENTER,MEAN_ANOMALY,EPHEMERIS_TYPE,ELEMENT_SET_NO,REV_AT_EPOCH,BSTAR,MEAN_MOTION_DOT,MEAN_MOTION_DDOT,FILE,TLE_LINE0,TLE_LINE1,TLE_LINE2,OBJECT_ID,OBJECT_NUMBER,SEMIMAJOR_AXIS,PERIOD,APOGEE,PERIGEE,DECAYED
"GENERATED VIA SPACETRACK.ORG API","18 SPCS","48897","SPACEBEE-109","PAYLOAD","U","21059U","2023-03-27 21:12:31","260096","15.26795945","0.0008575","97.5851","222.5281","199.3521","160.7392","0","999","9698","0.0014045","0.00037098","0","3872915","0 SPACEBEE-109","1 48897U 21059U   23086.88369514  .00037098  00000-0  14045-2 0  9999","2 48897  97.5851 222.5281 0008575 199.3521 160.7392 15.26795945 96983","2021-059U","48897","6863.535","94.315","491.285","479.514","0"
"GENERATED VIA SPACETRACK.ORG API","18 SPCS","48897","SPACEBEE-109","PAYLOAD","U","21059U","2023-03-28 08:13:08","526720","15.26833644","0.000851","97.5847","222.9946","198.1053","161.9883","0","999","9705","0.0015085","0.00039911","0","3873346","0 SPACEBEE-109","1 48897U 21059U   23087.34245980  .00039911  00000-0  15085-2 0  9992","2 48897  97.5847 222.9946 0008510 198.1053 161.9883 15.26833644 97052","2021-059U","48897","6863.422","94.313","491.128","479.446","0"
"GENERATED VIA SPACETRACK.ORG API","18 SPCS","48897","SPACEBEE-109","PAYLOAD","U","21059U","2023-03-28 08:13:08","526720","15.26833644","0.000851","97.5847","222.9946","198.1053","161.9883","0","999","9705","0.0015085","0.00039911","0","3873565","0 SPACEBEE-109","1 48897U 21059U   23087.34245980  .00039911  00000-0  15085-2 0  9992","2 48897  97.5847 222.9946 0008510 198.1053 161.9883 15.26833644 97052","2021-059U","48897","6863.422","94.313","491.128","479.446","0"
"GENERATED VIA SPACETRACK.ORG API","18 SPCS","48897","SPACEBEE-109","PAYLOAD","U","21059U","2023-03-28 20:48:07","12512","15.26881237","0.0008464","97.5851","223.5267","196.696","163.4","0","999","9713","0.0016659","0.00044171","0","3873921","0 SPACEBEE-109","1 48897U 21059U   23087.86674783  .00044171  00000-0  16659-2 0  9998","2 48897  97.5851 223.5267 0008464 196.6960 163.4000 15.26881237 97136","2021-059U","48897","6863.279","94.310","490.953","479.335","0"
"GENERATED VIA SPACETRACK.ORG API","18 SPCS","48897","SPACEBEE-109","PAYLOAD","U","21059U","2023-03-29 07:48:42","34464","15.26922742","0.0008471","97.5849","223.9929","195.1215","164.9771","0","999","9720","0.001711","0.00045434","0","3874335","0 SPACEBEE-109","1 48897U 21059U   23088.32548651  .00045434  00000-0  17110-2 0  9990","2 48897  97.5849 223.9929 0008471 195.1215 164.9771 15.26922742 97203","2021-059U","48897","6863.155","94.307","490.834","479.206","0"
"GENERATED VIA SPACETRACK.ORG API","18 SPCS","48897","SPACEBEE-109","PAYLOAD","U","21059U","2023-03-29 07:48:42","34464","15.26922742","0.0008471","97.5849","223.9929","195.1215","164.9771","0","999","9720","0.001711","0.00045434","0","3874492","0 SPACEBEE-109","1 48897U 21059U   23088.32548651  .00045434  00000-0  17110-2 0  9990","2 48897  97.5849 223.9929 0008471 195.1215 164.9771 15.26922742 97203","2021-059U","48897","6863.155","94.307","490.834","479.206","0"
"GENERATED VIA SPACETRACK.ORG API","18 SPCS","48897","SPACEBEE-109","PAYLOAD","U","21059U","2023-03-29 20:23:37","860000","15.26972462","0.0008411","97.5852","224.5253","193.3092","166.7926","0","999","9728","0.0017498","0.00046542","0","3874790","0 SPACEBEE-109","1 48897U 21059U   23088.84974375  .00046542  00000-0  17498-2 0  9993","2 48897  97.5852 224.5253 0008411 193.3092 166.7926 15.26972462 97285","2021-059U","48897","6863.006","94.304","490.643","479.098","0"
"GENERATED VIA SPACETRACK.ORG API","18 SPCS","48897","SPACEBEE-109","PAYLOAD","U","21059U","2023-03-30 08:58:32","200320","15.27023023","0.0008426","97.5852","225.0582","191.2351","168.87","0","999","9736","0.0018086","0.00048193","0","3875234","0 SPACEBEE-109","1 48897U 21059U   23089.37398380  .00048193  00000-0  18086-2 0  9996","2 48897  97.5852 225.0582 0008426 191.2351 168.8700 15.27023023 97360","2021-059U","48897","6862.854","94.301","490.502","478.937","0"
"GENERATED VIA SPACETRACK.ORG API","18 SPCS","48897","SPACEBEE-109","PAYLOAD","U","21059U","2023-03-30 08:58:32","200320","15.27023023","0.0008426","97.5852","225.0582","191.2351","168.87","0","999","9736","0.0018086","0.00048193","0","3875726","0 SPACEBEE-109","1 48897U 21059U   23089.37398380  .00048193  00000-0  18086-2 0  9996","2 48897  97.5852 225.0582 0008426 191.2351 168.8700 15.27023023 97360","2021-059U","48897","6862.854","94.301","490.502","478.937","0"
"GENERATED VIA SPACETRACK.ORG API","18 SPCS","48897","SPACEBEE-109","PAYLOAD","U","21059U","2023-04-01 08:09:12","575232","15.27210456","0.0008562","97.585","227.0563","185.0311","175.0843","0","999","9766","0.0017392","0.00046596","0","3877070","0 SPACEBEE-109","1 48897U 21059U   23091.33972888  .00046596  00000-0  17392-2 0  9990","2 48897  97.5850 227.0563 0008562 185.0311 175.0843 15.27210456 97666","2021-059U","48897","6862.293","94.290","490.033","478.282","0"
"GENERATED VIA SPACETRACK.ORG API","18 SPCS","48897","SPACEBEE-109","PAYLOAD","U","21059U","2023-04-01 14:26:36","514464","15.27228034","0.0008486","97.585","227.323","184.3059","175.8108","0","999","9770","0.0015652","0.00041922","0","3877270","0 SPACEBEE-109","1 48897U 21059U   23091.60181151  .00041922  00000-0  15652-2 0  9990","2 48897  97.5850 227.3230 0008486 184.3059 175.8108 15.27228034 97704","2021-059U","48897","6862.240","94.288","489.929","478.282","0"
"GENERATED VIA SPACETRACK.ORG API","18 SPCS","48897","SPACEBEE-109","PAYLOAD","U","21059U","2023-04-02 07:44:25","469664","15.27295903","0.0008432","97.5852","228.056","182.1725","177.9478","0","999","9781","0.0017862","0.00047988","0","3878126","0 SPACEBEE-109","1 48897U 21059U   23092.32251701  .00047988  00000-0  17862-2 0  9992","2 48897  97.5852 228.0560 0008432 182.1725 177.9478 15.27295903 97811","2021-059U","48897","6862.037","94.284","489.688","478.116","0"
"GENERATED VIA SPACETRACK.ORG API","18 SPCS","48897","SPACEBEE-109","PAYLOAD","U","21059U","2023-04-02 20:19:10","388064","15.27335114","0.0008426","97.5856","228.589","180.3175","179.806","0","999","9789","0.0014158","0.00038016","0","3878230","0 SPACEBEE-109","1 48897U 21059U   23092.84664801  .00038016  00000-0  14158-2 0  9995","2 48897  97.5856 228.5890 0008426 180.3175 179.8060 15.27335114 97893","2021-059U","48897","6861.919","94.282","489.566","478.003","0"
"GENERATED VIA SPACETRACK.ORG API","18 SPCS","48897","SPACEBEE-109","PAYLOAD","U","21059U","2023-04-02 21:53:30","918624","15.27339674","0.0008432","97.5856","228.6556","180.0439","180.08","0","999","9790","0.0013833","0.00037142","0","3878419","0 SPACEBEE-109","1 48897U 21059U   23092.91216341  .00037142  00000-0  13833-2 0  9993","2 48897  97.5856 228.6556 0008432 180.0439 180.0800 15.27339674 97903","2021-059U","48897","6861.906","94.282","489.557","477.985","0"
"GENERATED VIA SPACETRACK.ORG API","18 SPCS","48897","SPACEBEE-109","PAYLOAD","U","21059U","2023-04-03 07:19:33","638880","15.27376487","0.0008423","97.5856","229.0553","178.5033","181.6232","0","999","9796","0.0016054","0.00043201","0","3879059","0 SPACEBEE-109","1 48897U 21059U   23093.30525045  .00043201  00000-0  16054-2 0  9992","2 48897  97.5856 229.0553 0008423 178.5033 181.6232 15.27376487 97962","2021-059U","48897","6861.796","94.279","489.440","477.881","0"
"GENERATED VIA SPACETRACK.ORG API","18 SPCS","48897","SPACEBEE-109","PAYLOAD","U","21059U","2023-04-03 07:19:33","638880","15.27376487","0.0008423","97.5856","229.0553","178.5033","181.6232","0","999","9796","0.0016054","0.00043201","0","3879214","0 SPACEBEE-109","1 48897U 21059U   23093.30525045  .00043201  00000-0  16054-2 0  9992","2 48897  97.5856 229.0553 0008423 178.5033 181.6232 15.27376487 97962","2021-059U","48897","6861.796","94.279","489.440","477.881","0"
"GENERATED VIA SPACETRACK.ORG API","18 SPCS","48897","SPACEBEE-109","PAYLOAD","U","21059U","2023-04-04 08:28:57","406944","15.27462855","0.0008416","97.5857","230.1215","174.9603","185.1721","0","999","9812","0.001599","0.00043141","0","3879821","0 SPACEBEE-109","1 48897U 21059U   23094.35344221  .00043141  00000-0  15990-2 0  9994","2 48897  97.5857 230.1215 0008416 174.9603 185.1721 15.27462855 98122","2021-059U","48897","6861.537","94.274","489.177","477.627","0"
"GENERATED VIA SPACETRACK.ORG API","18 SPCS","48897","SPACEBEE-109","PAYLOAD","U","21059U","2023-04-04 08:28:57","406944","15.27462855","0.0008416","97.5857","230.1215","174.9603","185.1721","0","999","9812","0.001599","0.00043141","0","3879974","0 SPACEBEE-109","1 48897U 21059U   23094.35344221  .00043141  00000-0  15990-2 0  9994","2 48897  97.5857 230.1215 0008416 174.9603 185.1721 15.27462855 98122","2021-059U","48897","6861.537","94.274","489.177","477.627","0"
"GENERATED VIA SPACETRACK.ORG API","18 SPCS","48897","SPACEBEE-109","PAYLOAD","U","21059U","2023-04-04 21:03:37","357344","15.27502075","0.0008408","97.5861","230.6543","173.605","186.5297","0","999","9820","0.0013752","0.00037106","0","3880211","0 SPACEBEE-109","1 48897U 21059U   23094.87751571  .00037106  00000-0  13752-2 0  9999","2 48897  97.5861 230.6543 0008408 173.6050 186.5297 15.27502075 98200","2021-059U","48897","6861.419","94.272","489.054","477.515","0"
"GENERATED VIA SPACETRACK.ORG API","18 SPCS","48897","SPACEBEE-109","PAYLOAD","U","21059U","2023-04-05 14:21:15","334560","15.27559067","0.0008362","97.5861","231.3869","171.2587","188.8799","0","999","9831","0.0014611","0.00039509","0","3880853","0 SPACEBEE-109","1 48897U 21059U   23095.59809415  .00039509  00000-0  14611-2 0  9994","2 48897  97.5861 231.3869 0008362 171.2587 188.8799 15.27559067 98314","2021-059U","48897","6861.249","94.268","488.851","477.376","0"
